     3.02           N: GNSS NAV DATA    M: Mixed            RINEX VERSION / TYPE
Skytraq FW host     Skytraq Corp.       20180113 170407 UTC PGM / RUN BY / DATE
Skytraq FW kernel 1.100.38                                  COMMENT
Stq test version                                            COMMENT
GPSA    .7451e-08  -.1490e-07  -.5960e-07   .1192e-06       IONOSPHERIC CORR
GPSB    .8806e+05  -.4915e+05  -.1966e+06   .3277e+06       IONOSPHERIC CORR
QZSA    .7451e-08  -.3725e-07  -.3576e-06  -.3576e-06       IONOSPHERIC CORR
QZSB    .7782e+05  -.1638e+05   .8520e+06   .5439e+07       IONOSPHERIC CORR
GPUT   .0000000000E+01 -.355271368E-14 147456 1728          TIME SYSTEM CORR
    18                                                      LEAP SECONDS
                                                            END OF HEADER
C07 2018  1 14  8  0  0-2.740056952462e-04-1.384314884945e-11 0.000000000000e+00
     1.000000000000e+00 7.255156250000e+02 9.882554505206e-10-2.788517555098e+00
     2.366909757257e-05 5.830965703353e-03 6.741844117641e-06 6.493411510468e+03
     2.880000000000e+04 3.911554813385e-08-2.873391829835e+00 1.681037247181e-07
     9.229930608572e-01 3.032812500000e+01-2.714287119742e+00-1.953295648318e-09
     3.117987019532e-10 0.000000000000e+00 6.280000000000e+02 0.000000000000e+00
     2.400000000000e+00 0.000000000000e+00 1.400000027019e-08 7.000000024071e-10
     2.880000000000e+04 0.000000000000e+00
C09 2018  1 14  8  0  0-5.046214209870e-04 3.787192781601e-11 0.000000000000e+00
     1.000000000000e+00-5.304687500000e+01 1.835790753768e-09-1.349729733158e+00
    -1.952052116394e-06 4.706804174930e-03 3.722496330738e-06 6.493412033081e+03
     2.880000000000e+04 1.164153218269e-08 1.403590955071e+00 2.235174179077e-08
     9.495405825766e-01 1.249531250000e+02-2.560069322603e+00-2.126874307138e-09
    -3.693010971588e-10 0.000000000000e+00 6.280000000000e+02 0.000000000000e+00
     2.400000000000e+00 0.000000000000e+00 6.300000077175e-09 3.600000075821e-09
     2.880000000000e+04 0.000000000000e+00
C14 2018  1 14  8  0  0 1.401880290359e-04 2.291944412036e-11 0.000000000000e+00
     1.000000000000e+00 1.400000000000e+01 4.193746114930e-09-1.735355677627e+00
     6.132759153843e-07 1.794907846488e-03 5.503185093403e-06 5.282598402023e+03
     2.880000000000e+04 3.911554813385e-08 9.207263512168e-01-1.955777406693e-08
     9.572802413759e-01 2.472656250000e+02-2.287181619461e+00-6.843856502665e-09
     2.139374827835e-10 0.000000000000e+00 6.280000000000e+02 0.000000000000e+00
     2.400000000000e+00 0.000000000000e+00 6.100000060627e-09 1.400000004814e-09
     2.880000000000e+04 0.000000000000e+00
C06 2018  1 14  8  0  0-6.735444767401e-04-5.170086581074e-12 0.000000000000e+00
     1.000000000000e+00-5.775000000000e+01 1.902936407797e-09-1.139940703312e+00
    -2.160202711821e-06 5.896401475184e-03 2.810265868902e-06 6.493566778183e+03
     2.880000000000e+04-2.793967723846e-08 1.361834626861e+00 6.519258022308e-08
     9.442313515058e-01 1.451875000000e+02-2.334219725621e+00-2.221521106700e-09
    -3.171560679661e-10 0.000000000000e+00 6.280000000000e+02 0.000000000000e+00
     2.400000000000e+00 0.000000000000e+00 7.799999757196e-09-1.700000029636e-09
     2.880000000000e+04 0.000000000000e+00
C10 2018  1 14  8  0  0 5.720928311348e-05-2.702194024096e-11 0.000000000000e+00
     1.000000000000e+00 7.836875000000e+02 9.075378025923e-10 3.042788701117e+00
     2.561416476965e-05 4.927219823003e-03 7.513910531998e-06 6.493169012070e+03
     2.880000000000e+04 2.169981598854e-07-2.882264016905e+00 7.543712854385e-08
     9.243528329715e-01 4.062500000000e+00-2.681099771276e+00-2.003297731106e-09
     3.682296239562e-10 0.000000000000e+00 6.280000000000e+02 0.000000000000e+00
     2.400000000000e+00 0.000000000000e+00 5.099999977887e-09 2.700000001354e-09
     2.880000000000e+04 0.000000000000e+00
C01 2018  1 14  8  0  0 2.375731710345e-04 4.774491912940e-11 0.000000000000e+00
     1.000000000000e+00-6.235312500000e+02-2.488317934144e-09 2.748524395736e+00
    -2.058083191514e-05 2.863644622266e-04-1.972075551748e-06 6.493437768936e+03
     2.880000000000e+04 4.051253199577e-08-1.196567719608e+00-6.612390279770e-08
     1.089053988841e-01 5.923437500000e+01 2.991281345115e+00 3.696582548929e-09
     3.989451890970e-10 0.000000000000e+00 6.280000000000e+02 0.000000000000e+00
     2.400000000000e+00 0.000000000000e+00 1.420000028673e-08-1.039999997232e-08
     2.885700000000e+04 0.000000000000e+00
C03 2018  1 14  8  0  0-2.872626064345e-04 7.094502763039e-11 0.000000000000e+00
     1.000000000000e+00-6.300156250000e+02-2.118302521517e-09 1.019321087386e-02
    -2.073356881738e-05 7.371380925179e-04 1.011416316032e-06 6.493318353653e+03
     2.880000000000e+04 6.053596735001e-09-1.117321994386e+00-1.080334186554e-07
     1.130994401885e-01-3.073437500000e+01-1.147515251325e+00 3.310137880529e-09
     4.710910514046e-10 0.000000000000e+00 6.280000000000e+02 0.000000000000e+00
     2.400000000000e+00 0.000000000000e+00 3.400000059273e-09-1.009999994750e-08
     2.885700000000e+04 0.000000000000e+00
C04 2018  1 14  8  0  0-1.917622284964e-04 1.607425303973e-11 0.000000000000e+00
     1.000000000000e+00-6.271250000000e+02-2.449744898851e-09 2.330737091138e+00
    -2.065580338240e-05 6.607127143070e-04 3.338791429996e-06 6.493403186798e+03
     2.880000000000e+04 8.800998330116e-08-1.024818439482e+00-1.075677573681e-07
     1.059175042778e-01-1.003125000000e+02-2.696096662379e+00 3.581577758518e-09
     5.218074496605e-10 0.000000000000e+00 6.280000000000e+02 0.000000000000e+00
     2.400000000000e+00 0.000000000000e+00 4.599999936516e-09-8.699999831663e-09
     2.885700000000e+04 0.000000000000e+00
C02 2018  1 14  8  0  0-1.530651934445e-04-2.692157607953e-11 0.000000000000e+00
     1.000000000000e+00-6.295468750000e+02-1.781502778170e-09 7.087636855038e-01
    -2.063484862447e-05 3.182796062902e-04 9.865034371614e-06 6.493383272171e+03
     2.880000000000e+04-1.238659024239e-07-9.324665072586e-01-5.029141902924e-08
     1.121644160981e-01-3.061250000000e+02-2.492277927025e+00 2.831903674441e-09
     6.457411834265e-10 0.000000000000e+00 6.280000000000e+02 0.000000000000e+00
     2.400000000000e+00 0.000000000000e+00 2.999999970665e-10-1.390000026191e-08
     2.885700000000e+04 0.000000000000e+00
G03 2018  1 14 10  0  0-1.012301072478e-05 6.707523425575e-12 0.000000000000e+00
     7.100000000000e+01 1.753125000000e+01 4.735197239971e-09 2.301342306590e+00
     8.530914783478e-07 1.170674921013e-03 7.022172212600e-06 5.153572111130e+03
     3.600000000000e+04-2.793967723846e-08 6.762740699638e-01 1.862645149231e-09
     9.605461898958e-01 2.420000000000e+02 5.627268027558e-01-7.988904198498e-09
     4.039453973758e-10 1.000000000000e+00 1.984000000000e+03 0.000000000000e+00
     2.400000000000e+00 0.000000000000e+00 2.328306436539e-09 7.100000000000e+01
     2.895600000000e+04 4.000000000000e+00
G10 2018  1 14  9 59 44 1.457957550883e-04 5.684341886081e-12 0.000000000000e+00
     4.500000000000e+01 2.215625000000e+01 4.813414783760e-09 1.307631917444e+00
     1.288950443268e-06 3.168024471961e-03 7.033348083496e-06 5.153664426804e+03
     3.598400000000e+04 6.705522537231e-08 6.727330431058e-01 5.029141902923e-08
     9.606687487837e-01 2.438437500000e+02-2.865971496794e+00-8.138196131392e-09
     3.489431063096e-10 1.000000000000e+00 1.984000000000e+03 0.000000000000e+00
     2.400000000000e+00 0.000000000000e+00 1.862645149231e-09 4.500000000000e+01
     2.928600000000e+04 4.000000000000e+00
